{
  "type": "FeatureCollection",
  "features": [
    {
      "type": "Feature",
      "properties": {
        "osm_id": 123456,
        "name": "Lackey Road",
        "highway": "residential"
      },
      "geometry": {
        "type": "LineString",
        "coordinates": [
          [150.3699307, -34.550689],
          [150.3699197, -34.5506316],
          [150.3699119, -34.5505878],
          [150.3699086, -34.5505441],
          [150.3699119, -34.5504985],
          [150.3699219, -34.5504393],
          [150.369944, -34.55037],
          [150.3699717, -34.5502999],
          [150.3700989, -34.5500511],
          [150.3706341, -34.5490232],
          [150.3715509, -34.5472178],
          [150.3720688, -34.5461876],
          [150.3726025, -34.5451553],
          [150.3730454, -34.5443114],
          [150.3730868, -34.5442247],
          [150.3731823, -34.5438702],
          [150.3732037, -34.5438048],
          [150.3732097, -34.5436219],
          [150.3732109, -34.5434931],
          [150.3732778, -34.5433107],
          [150.3733081, -34.5432345],
          [150.3735325, -34.5429753],
          [150.3737743, -34.5427214],
          [150.3741349, -34.5423363],
          [150.3742924, -34.5420438],
          [150.3746573, -34.5413451],
          [150.374984, -34.5406265],
          [150.3752913, -34.5399616],
          [150.3756262, -34.5393033]
        ]
      }
    }
  ]
}