{"type":"FeatureCollection","attribution":"\u00a9 OpenStreetMap contributors, ODbL 1.0","features":[{"type":"Feature","properties":{"osm_id":2077148,"name":"Rose Street","highway":"residential"},"geometry":{"type":"LineString","coordinates":[[151.1953286,-33.8856922],[151.1953968,-33.88552],[151.1954246,-33.8854883],[151.1954996,-33.8854844],[151.1956641,-33.885477],[151.1959596,-33.8854611],[151.1960319,-33.8854572]]}},{"type":"Feature","properties":{"osm_id":2077149,"name":"Shepherd Street","highway":"residential"},"geometry":{"type":"LineString","coordinates":[[151.1956238,-33.8869712],[151.1956427,-33.8869216],[151.1957405,-33.886703],[151.1960583,-33.8859342]]}},{"type":"Feature","properties":{"osm_id":2077167,"name":"Meagher Street","highway":"residential"},"geometry":{"type":"LineString","coordinates":[[151.2004463,-33.8875539],[151.2004863,-33.8875588],[151.2006195,-33.8875771],[151.2006845,-33.8875851],[151.2007773,-33.8875964]]}},{"type":"Feature","properties":{"osm_id":2654276,"name":"MacArthur Street","highway":"unclassified"},"geometry":{"type":"LineString","coordinates":[[151.1946748,-33.8809027],[151.194782,-33.8808951],[151.1951349,-33.8808669],[151.1957454,-33.8808263],[151.1958746,-33.8807908],[151.1964768,-33.8805604],[151.1965024,-33.8805507],[151.1965665,-33.8805264]]}},{"type":"Feature","properties":{"osm_id":2698615,"name":"Elger Street","highway":"residential"},"geometry":{"type":"LineString","coordinates":[[151.193601,-33.8806435],[151.1938093,-33.880692],[151.1938557,-33.8806983],[151.1939053,-33.8806972],[151.1946232,-33.8806401],[151.1946487,-33.8806381]]}},{"type":"Feature","properties":{"osm_id":2698616,"name":"Stirling Street","highway":"residential"},"geometry":{"type":"LineString","coordinates":[[151.193601,-33.8806435],[151.1936232,-33.8805811],[151.1938067,-33.8800715],[151.1938116,-33.880058],[151.1938184,-33.8800391]]}},{"type":"Feature","properties":{"osm_id":2698620,"name":"Smail Street","highway":"residential"},"geometry":{"type":"LineString","coordinates":[[151.194895,-33.8828928],[151.194997,-33.8828852],[151.1950227,-33.8828832],[151.1953318,-33.8828597],[151.1958127,-33.8828232],[151.1960361,-33.882804],[151.1961594,-33.8827968]]}},{"type":"Feature","properties":{"osm_id":2761530,"name":"MacArthur Street","highway":"residential"},"geometry":{"type":"LineString","coordinates":[[151.1965665,-33.8805264],[151.1966248,-33.8805021],[151.1969387,-33.8803715],[151.1972218,-33.8802536],[151.1975487,-33.8801175],[151.1976372,-33.8800807]]}},{"type":"Feature","properties":{"osm_id":2761540,"name":"Systrum Street","highway":"unclassified"},"geometry":{"type":"LineString","coordinates":[[151.1998164,-33.8792282],[151.199854,-33.8792935],[151.2006259,-33.8806305],[151.2006371,-33.8806498],[151.2006683,-33.8807039]]}},{"type":"Feature","properties":{"osm_id":2761542,"name":"Thomas Street","highway":"unclassified"},"geometry":{"type":"LineString","coordinates":[[151.1982651,-33.8834691],[151.1983393,-33.8834403],[151.1988098,-33.8832582],[151.1989357,-33.8832095],[151.1992698,-33.8830802],[151.1993347,-33.8830543]]}},{"type":"Feature","properties":{"osm_id":2761569,"name":"McKee Street","highway":"residential"},"geometry":{"type":"LineString","coordinates":[[151.1980728,-33.8817253],[151.198048,-33.8816843],[151.1980342,-33.8816604],[151.1978109,-33.8812735],[151.1977916,-33.8812401]]}},{"type":"Feature","properties":{"osm_id":2761572,"name":"St Barnabas Street","highway":"unclassified"},"geometry":{"type":"LineString","coordinates":[[151.1954012,-33.8834663],[151.1962431,-33.8834165],[151.1963338,-33.8834107]]}},{"type":"Feature","properties":{"osm_id":2859044,"name":"Darling Street","highway":"residential"},"geometry":{"type":"LineString","coordinates":[[151.1887343,-33.8771019],[151.1890261,-33.877471],[151.189058,-33.877512],[151.1892783,-33.8777955],[151.1895009,-33.8780821],[151.1897059,-33.8783459],[151.1897294,-33.8783776],[151.18975,-33.8784086],[151.1904533,-33.8792876],[151.1904813,-33.8793245]]}},{"type":"Feature","properties":{"osm_id":2949896,"name":"Wellington Street","highway":"unclassified"},"geometry":{"type":"LineString","coordinates":[[151.2019546,-33.8866586],[151.2018916,-33.8866109],[151.2018666,-33.8866016],[151.2018403,-33.8865989],[151.2018196,-33.8865966],[151.201019,-33.8864907],[151.2008587,-33.8864695],[151.2004469,-33.886415],[151.2003036,-33.8863961],[151.2001405,-33.8863739],[151.2000717,-33.8863654]]}},{"type":"Feature","properties":{"osm_id":2949897,"name":"Henrietta Street","highway":"unclassified"},"geometry":{"type":"LineString","coordinates":[[151.2007752,-33.8871716],[151.2000026,-33.8870641],[151.1999505,-33.8870568]]}},{"type":"Feature","properties":{"osm_id":2949898,"name":"Queen Street","highway":"residential"},"geometry":{"type":"LineString","coordinates":[[151.2016698,-33.8870565],[151.2015947,-33.887046],[151.2008206,-33.886938],[151.2001347,-33.886845],[151.2000524,-33.8868338],[151.199991,-33.8868255]]}},{"type":"Feature","properties":{"osm_id":3168692,"name":"Ivy Street","highway":"residential"},"geometry":{"type":"LineString","coordinates":[[151.1947686,-33.8890346],[151.1951412,-33.889149],[151.1953179,-33.8892079],[151.1953791,-33.8892346],[151.1953963,-33.889292],[151.1956231,-33.8900487],[151.195635,-33.8900884],[151.1956573,-33.8901583],[151.1957417,-33.8904231],[151.1958494,-33.8907861]]}},{"type":"Feature","properties":{"osm_id":3727038,"name":"Vine Street","highway":"residential"},"geometry":{"type":"LineString","coordinates":[[151.1950134,-33.8884572],[151.1950757,-33.8884659],[151.195403,-33.8885118],[151.1961485,-33.8886169],[151.1962482,-33.8886309]]}},{"type":"Feature","properties":{"osm_id":3727050,"name":"Daniels Street","highway":"unclassified"},"geometry":{"type":"LineString","coordinates":[[151.196063,-33.8858094],[151.1961422,-33.885827],[151.1964244,-33.8858896],[151.1964935,-33.8859036],[151.1967709,-33.8859601],[151.1968867,-33.8859874],[151.1972846,-33.8860664],[151.1973196,-33.8860733],[151.1973584,-33.8860797]]}},{"type":"Feature","properties":{"osm_id":4578263,"name":"Myrtle Street","highway":"residential"},"geometry":{"type":"LineString","coordinates":[[151.1949146,-33.8868262],[151.1949856,-33.8868472]]}},{"type":"Feature","properties":{"osm_id":4759246,"name":"Shepherd Street","highway":"residential"},"geometry":{"type":"LineString","coordinates":[[151.1951676,-33.8881069],[151.1952039,-33.8880044],[151.1952171,-33.8879787],[151.1953035,-33.8877551],[151.1954641,-33.8873635],[151.1955524,-33.8871388],[151.1955785,-33.8870767]]}},{"type":"Feature","properties":{"osm_id":4762886,"name":"Abercrombie Street","highway":"tertiary"},"geometry":{"type":"LineString","coordinates":[[151.1981812,-33.8893235],[151.1982216,-33.8892871],[151.1986158,-33.8889103],[151.1987004,-33.888829],[151.1987952,-33.8887353],[151.1988058,-33.8887167],[151.1988265,-33.8886616]]}},{"type":"Feature","properties":{"osm_id":16752184,"name":"Mary Ann Street","highway":"unclassified"},"geometry":{"type":"LineString","coordinates":[[151.1974743,-33.8820993],[151.1974924,-33.8820238],[151.1974999,-33.8819901],[151.1975033,-33.8819747],[151.1975181,-33.8819484]]}},{"type":"Feature","properties":{"osm_id":23125025,"name":"Abercrombie Street","highway":"tertiary"},"geometry":{"type":"LineString","coordinates":[[151.1967506,-33.8907874],[151.1968161,-33.8907386],[151.1975684,-33.8901691],[151.1976164,-33.8901256],[151.1981043,-33.8894207],[151.1981218,-33.8893941]]}},{"type":"Feature","properties":{"osm_id":23378066,"name":"Vine Street","highway":"residential"},"geometry":{"type":"LineString","coordinates":[[151.1965304,-33.8886341],[151.1967057,-33.8887092],[151.1967541,-33.8887309],[151.1968774,-33.888786],[151.1970571,-33.8888663],[151.1974233,-33.88903],[151.1977731,-33.8891864],[151.1978226,-33.8892085],[151.1980639,-33.8893168],[151.1980953,-33.8893304]]}},{"type":"Feature","properties":{"osm_id":24460165,"name":"Balfour Street","highway":"residential"},"geometry":{"type":"LineString","coordinates":[[151.2000717,-33.8863654],[151.2000516,-33.8864796],[151.199991,-33.8868255],[151.1999781,-33.886899],[151.1999505,-33.8870568],[151.1999216,-33.8872212],[151.1998915,-33.8873931],[151.1998855,-33.8874273]]}},{"type":"Feature","properties":{"osm_id":24528874,"name":"MacArthur Street","highway":"residential"},"geometry":{"type":"LineString","coordinates":[[151.1987135,-33.879667],[151.1990053,-33.8795509],[151.1993528,-33.8794126],[151.1993906,-33.8793975],[151.1994194,-33.8793861],[151.1994957,-33.8793558]]}},{"type":"Feature","properties":{"osm_id":28121022,"name":"Maze Crescent","highway":"residential"},"geometry":{"type":"LineString","coordinates":[[151.190538,-33.8901046],[151.1906226,-33.8900597],[151.1906503,-33.8900447],[151.1913317,-33.8896747],[151.1918094,-33.8894145],[151.1918528,-33.8893953],[151.1927952,-33.8888754],[151.1928446,-33.8888581],[151.1928614,-33.8888582],[151.1929724,-33.8888592],[151.192999,-33.8888706]]}},{"type":"Feature","properties":{"osm_id":33629369,"name":"Bulwara Road","highway":"residential"},"geometry":{"type":"LineString","coordinates":[[151.197713,-33.878237],[151.1977388,-33.8783131],[151.1977483,-33.8783294],[151.1980901,-33.8789217],[151.1981417,-33.879011],[151.1983462,-33.8793652],[151.1984765,-33.879591]]}},{"type":"Feature","properties":{"osm_id":41801259,"name":"Shepherd Street","highway":"residential"},"geometry":{"type":"LineString","coordinates":[[151.1960319,-33.8854572],[151.1960126,-33.8850583],[151.1960103,-33.885011],[151.1960154,-33.8849972],[151.1960304,-33.8849394],[151.1960863,-33.8847232]]}},{"type":"Feature","properties":{"osm_id":46940608,"name":"Rose Street","highway":"residential"},"geometry":{"type":"LineString","coordinates":[[151.1943611,-33.887999],[151.1943922,-33.8879262],[151.1943979,-33.8879125],[151.1945103,-33.8876455],[151.1947131,-33.8871512],[151.19476,-33.8870295]]}},{"type":"Feature","properties":{"osm_id":50196872,"name":"St Johns Road","highway":"tertiary"},"geometry":{"type":"LineString","coordinates":[[151.1881495,-33.8806298],[151.1882201,-33.8805926],[151.1884599,-33.8804533],[151.1884976,-33.8804303],[151.1885349,-33.8804097],[151.1887887,-33.8802687],[151.1888644,-33.8802266],[151.1890982,-33.8800955],[151.1891926,-33.8800454],[151.189231,-33.8800262]]}},{"type":"Feature","properties":{"osm_id":52743547,"name":"Mary Ann Street","highway":"residential"},"geometry":{"type":"LineString","coordinates":[[151.1976009,-33.8819156],[151.1977881,-33.8818399],[151.1980728,-33.8817253],[151.1984628,-33.8815813],[151.1984774,-33.8815755]]}},{"type":"Feature","properties":{"osm_id":103176796,"name":"Boundary Street","highway":"residential"},"geometry":{"type":"LineString","coordinates":[[151.1960591,-33.8887981],[151.1957942,-33.8889705],[151.195434,-33.8891997],[151.1953791,-33.8892346],[151.1952984,-33.889287],[151.1949968,-33.8894829],[151.1949636,-33.8895045],[151.1947756,-33.8896601],[151.1945759,-33.8898329],[151.1945505,-33.8898442],[151.1945236,-33.8898484],[151.1945095,-33.8898483],[151.1944863,-33.8898482],[151.1944427,-33.8898394]]}},{"type":"Feature","properties":{"osm_id":118506985,"name":"Derwent Street","highway":"residential"},"geometry":{"type":"LineString","coordinates":[[151.1905814,-33.8838975],[151.1901741,-33.8836107],[151.1891053,-33.8828734],[151.1890855,-33.8828597],[151.1890325,-33.8828233]]}},{"type":"Feature","properties":{"osm_id":148331261,"name":"Buckland Street","highway":"residential"},"geometry":{"type":"LineString","coordinates":[[151.1970037,-33.8870655],[151.1970217,-33.8870254],[151.1971309,-33.8867199],[151.1973159,-33.8861882],[151.1973368,-33.8861372]]}},{"type":"Feature","properties":{"osm_id":148331266,"name":"Bay Street","highway":"unclassified"},"geometry":{"type":"LineString","coordinates":[[151.1947711,-33.881753],[151.1947683,-33.8817035],[151.1947434,-33.8815035],[151.1947126,-33.8812094],[151.1946748,-33.8809027],[151.1946487,-33.8806381],[151.1946103,-33.8802427],[151.1945405,-33.8796187],[151.1945376,-33.8795927],[151.1945231,-33.8795079]]}},{"type":"Feature","properties":{"osm_id":148331272,"name":"Bay Street","highway":"unclassified"},"geometry":{"type":"LineString","coordinates":[[151.194895,-33.8828928],[151.1949245,-33.8829937],[151.1949266,-33.8830172],[151.1949429,-33.8832014],[151.1949475,-33.8832531],[151.1949508,-33.8833255],[151.194952,-33.8833519],[151.1949866,-33.8837069],[151.1950093,-33.883922],[151.1950333,-33.884152]]}},{"type":"Feature","properties":{"osm_id":148331275,"name":"Kelly Street","highway":"residential"},"geometry":{"type":"LineString","coordinates":[[151.1965129,-33.8816545],[151.1962634,-33.8816766]]}},{"type":"Feature","properties":{"osm_id":153510454,"name":"Mountain Street","highway":"residential"},"geometry":{"type":"LineString","coordinates":[[151.1964916,-33.8843213],[151.1964709,-33.8842299],[151.1964665,-33.8842047],[151.1964084,-33.8838732],[151.1963462,-33.8834924],[151.1963338,-33.8834107],[151.1962961,-33.8831541],[151.1962584,-33.8829262],[151.1962434,-33.8828509]]}},{"type":"Feature","properties":{"osm_id":153511287,"name":"O'Connor Street","highway":"residential"},"geometry":{"type":"LineString","coordinates":[[151.1973159,-33.8861882],[151.1974161,-33.8861835],[151.1975684,-33.8861764],[151.1976792,-33.8861714],[151.1981198,-33.8861532],[151.1984295,-33.8861378],[151.1984975,-33.8861346]]}},{"type":"Feature","properties":{"osm_id":172264820,"name":"Mitchell Street","highway":"residential"},"geometry":{"type":"LineString","coordinates":[[151.1883435,-33.8835061],[151.188408,-33.8834403],[151.1886869,-33.8831561],[151.1889781,-33.8828757],[151.1890325,-33.8828233],[151.189103,-33.8827538],[151.1893731,-33.8824821],[151.1896608,-33.882197],[151.189668,-33.8821899],[151.1897142,-33.8821378]]}},{"type":"Feature","properties":{"osm_id":172264821,"name":"Mitchell Street","highway":"residential"},"geometry":{"type":"LineString","coordinates":[[151.1897142,-33.8821378],[151.1897434,-33.8821029],[151.1897456,-33.8821005],[151.1898568,-33.8819801],[151.1900632,-33.8817567],[151.1902524,-33.8815475],[151.1902545,-33.8815451],[151.1902787,-33.8815174],[151.190307,-33.8814884],[151.1903142,-33.8814807],[151.1905221,-33.8812557],[151.1906694,-33.8810962],[151.1906874,-33.8810767],[151.1907191,-33.8810424],[151.1907224,-33.881039],[151.1907474,-33.8810132],[151.1907793,-33.8809777],[151.190792,-33.8809638],[151.1908639,-33.8808843],[151.190981,-33.8807548],[151.1912414,-33.8804749],[151.1912457,-33.8804701],[151.1912757,-33.8804365],[151.1913057,-33.8804028],[151.1913193,-33.880388],[151.1917232,-33.8799495],[151.1917465,-33.8799246],[151.19179,-33.8798769],[151.1922111,-33.8794155],[151.1925181,-33.8790772],[151.1927636,-33.8788473],[151.1927771,-33.8788347],[151.192823,-33.8787918]]}},{"type":"Feature","properties":{"osm_id":172264822,"name":"Catherine Street","highway":"residential"},"geometry":{"type":"LineString","coordinates":[[151.1900823,-33.8839837],[151.1898466,-33.8839787],[151.1895884,-33.8839737],[151.1889693,-33.8839523],[151.1881671,-33.8839274],[151.1872759,-33.8838943]]}},{"type":"Feature","properties":{"osm_id":172264823,"name":"Westmoreland Street","highway":"residential"},"geometry":{"type":"LineString","coordinates":[[151.1883435,-33.8835061],[151.1887243,-33.8837686],[151.1888704,-33.8838732],[151.1888922,-33.8838889],[151.1889693,-33.8839523]]}},{"type":"Feature","properties":{"osm_id":172264830,"name":"Derwent Street","highway":"residential"},"geometry":{"type":"LineString","coordinates":[[151.1913012,-33.8844092],[151.1915555,-33.8845384],[151.1916376,-33.8845966],[151.1917602,-33.884683]]}},{"type":"Feature","properties":{"osm_id":172265132,"name":"Arundel Street","highway":"residential"},"geometry":{"type":"LineString","coordinates":[[151.1914371,-33.8845874],[151.1912949,-33.88459],[151.1912828,-33.8845901],[151.1912729,-33.8845897],[151.1908733,-33.8845797],[151.1880819,-33.8845005],[151.1879768,-33.8845207],[151.1878809,-33.8845086]]}},{"type":"Feature","properties":{"osm_id":172324270,"name":"Broughton Street","highway":"residential"},"geometry":{"type":"LineString","coordinates":[[151.1901327,-33.8795242],[151.1900993,-33.8794847],[151.1893648,-33.8785663]]}},{"type":"Feature","properties":{"osm_id":172387330,"name":"Broughton Street","highway":"residential"},"geometry":{"type":"LineString","coordinates":[[151.1900712,-33.8795581],[151.190114,-33.8795882],[151.1901185,-33.8795914],[151.1903786,-33.8797743],[151.1909692,-33.8802084],[151.1912195,-33.8803947],[151.1912757,-33.8804365],[151.1913263,-33.8804734],[151.1915801,-33.8806583],[151.1921516,-33.8810773],[151.1924337,-33.8812958],[151.1924511,-33.8813093],[151.1924852,-33.8813357]]}},{"type":"Feature","properties":{"osm_id":172387335,"name":"Gottenham Street","highway":"residential"},"geometry":{"type":"LineString","coordinates":[[151.1877243,-33.8783801],[151.1882547,-33.8790498],[151.1882771,-33.8790785],[151.1882994,-33.8791062],[151.1890603,-33.8800496],[151.1890706,-33.8800614],[151.1890982,-33.8800955]]}},{"type":"Feature","properties":{"osm_id":172387338,"name":"Glebe Street","highway":"residential"},"geometry":{"type":"LineString","coordinates":[[151.189231,-33.8800262],[151.1892764,-33.8800537],[151.1892919,-33.8800631],[151.1895297,-33.880225],[151.189613,-33.8802764],[151.189785,-33.8803867],[151.1904303,-33.8808068],[151.1906897,-33.8809756],[151.1907474,-33.8810132],[151.1907992,-33.8810461],[151.1910363,-33.8811964],[151.192173,-33.8819174],[151.1922188,-33.8819465]]}},{"type":"Feature","properties":{"osm_id":172387344,"name":"Talfourd Street","highway":"residential"},"geometry":{"type":"LineString","coordinates":[[151.187108,-33.8787187],[151.1876635,-33.879422],[151.1876932,-33.8794578],[151.1884541,-33.8803915],[151.1884615,-33.8804006],[151.1884976,-33.8804303]]}},{"type":"Feature","properties":{"osm_id":172387348,"name":"Norton Street","highway":"residential"},"geometry":{"type":"LineString","coordinates":[[151.1887759,-33.8814822],[151.1888122,-33.8814438],[151.189068,-33.8811739],[151.1892676,-33.8809613],[151.189297,-33.88093],[151.1893307,-33.88089],[151.1895529,-33.8806433],[151.1897595,-33.8804149],[151.189785,-33.8803867],[151.1898291,-33.8803397],[151.1900256,-33.8801303],[151.1901004,-33.8800485],[151.1903197,-33.8798025],[151.1903786,-33.8797743]]}},{"type":"Feature","properties":{"osm_id":172387350,"name":"Wentworth Street","highway":"residential"},"geometry":{"type":"LineString","coordinates":[[151.1914941,-33.8787728],[151.1915302,-33.8788155],[151.1917209,-33.8790527],[151.1919209,-33.8791965],[151.1921561,-33.879374],[151.1921778,-33.8793904],[151.1922111,-33.8794155],[151.1922459,-33.8794389],[151.1922667,-33.879453],[151.1925214,-33.879625],[151.1926795,-33.8797287],[151.1929974,-33.8798177],[151.1930442,-33.8798353]]}},{"type":"Feature","properties":{"osm_id":172387351,"name":"Cowper Street","highway":"residential"},"geometry":{"type":"LineString","coordinates":[[151.1913427,-33.8828984],[151.1914808,-33.8827504],[151.1917457,-33.8824309],[151.1919675,-33.8821883],[151.1921624,-33.8819788],[151.192173,-33.8819674],[151.1922188,-33.8819465],[151.1922626,-33.8819183],[151.1922754,-33.8818878],[151.1923836,-33.8816297],[151.1924852,-33.8813357],[151.1927925,-33.8805149],[151.1928231,-33.880432],[151.1930442,-33.8798353]]}},{"type":"Feature","properties":{"osm_id":172407694,"name":"Francis Street","highway":"residential"},"geometry":{"type":"LineString","coordinates":[[151.1918044,-33.8835982],[151.1918517,-33.8835445],[151.1918852,-33.8835279],[151.1919276,-33.8835151],[151.1919968,-33.8835015],[151.1921529,-33.8834897],[151.1923313,-33.883479],[151.1929623,-33.8834306],[151.1932158,-33.8834111]]}},{"type":"Feature","properties":{"osm_id":172407695,"name":"Franklyn Street","highway":"residential"},"geometry":{"type":"LineString","coordinates":[[151.1924539,-33.8819822],[151.19243,-33.8820433],[151.1924306,-33.8820507],[151.1924993,-33.8826507],[151.1923976,-33.882941]]}},{"type":"Feature","properties":{"osm_id":172411253,"name":"William Henry Street","highway":"secondary"},"geometry":{"type":"LineString","coordinates":[[151.1957087,-33.8790355],[151.1957983,-33.8789924],[151.1958314,-33.8789787],[151.1961953,-33.8788309],[151.1964775,-33.8787267],[151.1966693,-33.8786516],[151.1966999,-33.8786392],[151.1967884,-33.8786038]]}},{"type":"Feature","properties":{"osm_id":172425687,"name":"Knox Street","highway":"unclassified"},"geometry":{"type":"LineString","coordinates":[[151.1960154,-33.8849972],[151.1959132,-33.8849811],[151.1956129,-33.8849338],[151.19515,-33.8849352],[151.1947989,-33.8848678],[151.1947342,-33.8848548]]}},{"type":"Feature","properties":{"osm_id":172654518,"name":"Edward Street","highway":"residential"},"geometry":{"type":"LineString","coordinates":[[151.1962169,-33.8903587],[151.1968034,-33.889862],[151.1973987,-33.8890638],[151.1974053,-33.8890548],[151.1974233,-33.88903],[151.1974406,-33.8890038],[151.1974436,-33.8889993],[151.1976118,-33.8887446]]}},{"type":"Feature","properties":{"osm_id":172709173,"name":"Campbell Street","highway":"residential"},"geometry":{"type":"LineString","coordinates":[[151.1884976,-33.8804303],[151.1885437,-33.880461],[151.1885471,-33.8804635],[151.1889199,-33.8806951],[151.189297,-33.88093],[151.1902337,-33.8814905],[151.1902787,-33.8815174],[151.1903387,-33.8815548],[151.1916998,-33.8824042],[151.1917111,-33.8824108],[151.1917457,-33.8824309]]}},{"type":"Feature","properties":{"osm_id":172711281,"name":"Glebe Street","highway":"residential"},"geometry":{"type":"LineString","coordinates":[[151.1924539,-33.8819822],[151.1946986,-33.8818184]]}},{"type":"Feature","properties":{"osm_id":172711282,"name":"Queen Street","highway":"residential"},"geometry":{"type":"LineString","coordinates":[[151.1924852,-33.8813357],[151.1925701,-33.8813309],[151.1947126,-33.8812094]]}},{"type":"Feature","properties":{"osm_id":173486824,"name":"Moorgate Street","highway":"unclassified"},"geometry":{"type":"LineString","coordinates":[[151.196706,-33.8849715],[151.1967094,-33.8850247],[151.196768,-33.8859233],[151.1967687,-33.8859339],[151.1967709,-33.8859601]]}},{"type":"Feature","properties":{"osm_id":173486827,"name":"Chippen Street","highway":"unclassified"},"geometry":{"type":"LineString","coordinates":[[151.2006195,-33.8875771],[151.2006111,-33.8876108]]}},{"type":"Feature","properties":{"osm_id":173486829,"name":"Myrtle Street","highway":"residential"},"geometry":{"type":"LineString","coordinates":[[151.1943881,-33.8866749],[151.1941998,-33.8866215],[151.1941596,-33.8866094],[151.1940697,-33.8865837],[151.1940359,-33.8865749],[151.1939908,-33.8865611]]}},{"type":"Feature","properties":{"osm_id":173486832,"name":"Dale Avenue","highway":"unclassified"},"geometry":{"type":"LineString","coordinates":[[151.2002362,-33.8876638],[151.2000391,-33.8887013],[151.2000357,-33.8887193],[151.200031,-33.8887393]]}},{"type":"Feature","properties":{"osm_id":173486839,"name":"Balfour Street","highway":"residential"},"geometry":{"type":"LineString","coordinates":[[151.1998705,-33.8875272],[151.1998639,-33.8875633],[151.1998279,-33.8877616],[151.1997748,-33.8880534],[151.1996885,-33.8885277]]}},{"type":"Feature","properties":{"osm_id":173486842,"name":"Chippen Street","highway":"unclassified"},"geometry":{"type":"LineString","coordinates":[[151.2006845,-33.8875851],[151.2006903,-33.8875578],[151.2006942,-33.887541],[151.2007752,-33.8871716],[151.2008138,-33.8869737],[151.2008206,-33.886938]]}},{"type":"Feature","properties":{"osm_id":173486844,"name":"Grafton Street","highway":"unclassified"},"geometry":{"type":"LineString","coordinates":[[151.1974119,-33.8849344],[151.1973821,-33.8849356],[151.1973508,-33.8849373],[151.196706,-33.8849715],[151.1963541,-33.8849889],[151.1961269,-33.8850037],[151.196049,-33.8850088],[151.1960103,-33.885011]]}},{"type":"Feature","properties":{"osm_id":173486846,"name":"Bartley Street","highway":"residential"},"geometry":{"type":"LineString","coordinates":[[151.1997748,-33.8880534],[151.199716,-33.8880492],[151.1995791,-33.8880395],[151.1991973,-33.8880124]]}},{"type":"Feature","properties":{"osm_id":173486865,"name":"Levey Street","highway":"residential"},"geometry":{"type":"LineString","coordinates":[[151.1971309,-33.8867199],[151.1972008,-33.886717],[151.1981137,-33.8866789],[151.1981413,-33.8866726],[151.1981569,-33.8866514]]}},{"type":"Feature","properties":{"osm_id":173486868,"name":"Levey Street","highway":"residential"},"geometry":{"type":"LineString","coordinates":[[151.1987593,-33.8867907],[151.1986976,-33.8867933],[151.1986361,-33.8867958],[151.1982085,-33.8868211],[151.1981452,-33.886824],[151.1981268,-33.8868425]]}},{"type":"Feature","properties":{"osm_id":173486873,"name":"Pine Street","highway":"residential"},"geometry":{"type":"LineString","coordinates":[[151.1968191,-33.8861426],[151.1965317,-33.8868193],[151.1964852,-33.8869289],[151.1963792,-33.8871751],[151.1963475,-33.8872486],[151.1963198,-33.8873153],[151.1962024,-33.8875822],[151.1960931,-33.8878637],[151.1960663,-33.8879309],[151.1960234,-33.8880447],[151.1959881,-33.8881281],[151.1959838,-33.8881377],[151.1959689,-33.8882009]]}},{"type":"Feature","properties":{"osm_id":173486877,"name":"Meagher Street","highway":"residential"},"geometry":{"type":"LineString","coordinates":[[151.1995778,-33.8874424],[151.1995228,-33.8874335],[151.1994405,-33.8874203],[151.199422,-33.8874173]]}},{"type":"Feature","properties":{"osm_id":173556751,"name":"Beaumont Street","highway":"residential"},"geometry":{"type":"LineString","coordinates":[[151.1964846,-33.8878976],[151.1964598,-33.8879775],[151.1964415,-33.8880395],[151.1964033,-33.8881801],[151.1963993,-33.8881971],[151.1963838,-33.8882573]]}},{"type":"Feature","properties":{"osm_id":173569254,"name":"O'Connor Street","highway":"residential"},"geometry":{"type":"LineString","coordinates":[[151.1987153,-33.8861146],[151.1986262,-33.8861264]]}},{"type":"Feature","properties":{"osm_id":173569268,"name":"Blackfriars Street","highway":"residential"},"geometry":{"type":"LineString","coordinates":[[151.1976504,-33.8856454],[151.1977978,-33.8856399]]}},{"type":"Feature","properties":{"osm_id":173569273,"name":"Blackfriars Street","highway":"residential"},"geometry":{"type":"LineString","coordinates":[[151.1986917,-33.8857364],[151.1986211,-33.8857183],[151.198535,-33.8856966]]}},{"type":"Feature","properties":{"osm_id":173875843,"name":"Hudson Street","highway":"residential"},"geometry":{"type":"LineString","coordinates":[[151.1998837,-33.8896896],[151.199845,-33.8896658],[151.1995193,-33.8894656],[151.1989125,-33.8890927],[151.1986762,-33.8889474],[151.1986158,-33.8889103]]}},{"type":"Feature","properties":{"osm_id":174867540,"name":"Mary Ann Street","highway":"residential"},"geometry":{"type":"LineString","coordinates":[[151.2006683,-33.8807039],[151.2004896,-33.880775],[151.2004689,-33.8807832],[151.2003476,-33.8808315]]}},{"type":"Feature","properties":{"osm_id":175162402,"name":"Kelly Street","highway":"residential"},"geometry":{"type":"LineString","coordinates":[[151.1948506,-33.8818032],[151.1948985,-33.8817891]]}},{"type":"Feature","properties":{"osm_id":175375356,"name":"Myrtle Street","highway":"residential"},"geometry":{"type":"LineString","coordinates":[[151.198466,-33.8873316],[151.1985234,-33.8873191],[151.1985605,-33.8873111]]}},{"type":"Feature","properties":{"osm_id":175377606,"name":"Smithers Street","highway":"residential"},"geometry":{"type":"LineString","coordinates":[[151.1981569,-33.8866514],[151.1981221,-33.8861873],[151.1981216,-33.8861801],[151.1981198,-33.8861532]]}},{"type":"Feature","properties":{"osm_id":175970233,"name":"Shepherd Street","highway":"residential"},"geometry":{"type":"LineString","coordinates":[[151.1938509,-33.8913078],[151.1938701,-33.8912424],[151.1938741,-33.891229],[151.1939982,-33.8909265],[151.194175,-33.8904839],[151.1942544,-33.8902953],[151.1943549,-33.8900566],[151.1944427,-33.8898394],[151.1945189,-33.8896508],[151.1946351,-33.8893662],[151.1947686,-33.8890346],[151.1947749,-33.8890197],[151.1948229,-33.8889065],[151.1950134,-33.8884572],[151.1950395,-33.8883989]]}},{"type":"Feature","properties":{"osm_id":179905380,"name":"Chippendale Way","highway":"residential"},"geometry":{"type":"LineString","coordinates":[[151.2000696,-33.8841952],[151.2000723,-33.8842964]]}},{"type":"Feature","properties":{"osm_id":224576119,"name":"Glebe Point Road","highway":"secondary"},"geometry":{"type":"LineString","coordinates":[[151.1878141,-33.8807979],[151.1878924,-33.8808603],[151.1879133,-33.880875],[151.1883149,-33.881157],[151.1887759,-33.8814822],[151.1896471,-33.8820909],[151.1897142,-33.8821378],[151.1897999,-33.8821977],[151.1903379,-33.8825736],[151.1903738,-33.8825987]]}},{"type":"Feature","properties":{"osm_id":230066064,"name":"Mountain Street","highway":"residential"},"geometry":{"type":"LineString","coordinates":[[151.1962183,-33.8827305],[151.1962089,-33.8826787],[151.1960437,-33.8817619],[151.1960402,-33.8817331],[151.1960335,-33.8816973],[151.196022,-33.8816309],[151.1959686,-33.8812582],[151.1959546,-33.8811609]]}},{"type":"Feature","properties":{"osm_id":230066065,"name":"Smail Street","highway":"residential"},"geometry":{"type":"LineString","coordinates":[[151.1963045,-33.8827772],[151.1963468,-33.8827742],[151.197151,-33.8827182]]}},{"type":"Feature","properties":{"osm_id":244375000,"name":"Central Park Avenue","highway":"residential"},"geometry":{"type":"LineString","coordinates":[[151.200096,-33.8849178],[151.2001719,-33.8849172]]}},{"type":"Feature","properties":{"osm_id":247637744,"name":"Wentworth Street","highway":"unclassified"},"geometry":{"type":"LineString","coordinates":[[151.1930442,-33.8798353],[151.1931048,-33.8798513],[151.1938184,-33.8800391],[151.1946103,-33.8802427]]}},{"type":"Feature","properties":{"osm_id":247637745,"name":"Cowper Street","highway":"unclassified"},"geometry":{"type":"LineString","coordinates":[[151.1930442,-33.8798353],[151.1931524,-33.8795551],[151.1932683,-33.879265],[151.1932845,-33.8792266],[151.1933052,-33.8791776]]}},{"type":"Feature","properties":{"osm_id":247639181,"name":"Grose Street","highway":"residential"},"geometry":{"type":"LineString","coordinates":[[151.1950093,-33.883922],[151.194934,-33.883929],[151.1936885,-33.8840335],[151.1931439,-33.8840792],[151.1931151,-33.8840678],[151.1923703,-33.8835316],[151.1923313,-33.883479]]}},{"type":"Feature","properties":{"osm_id":247956387,"name":"Glebe Point Road","highway":"secondary"},"geometry":{"type":"LineString","coordinates":[[151.1929717,-33.8845104],[151.1929774,-33.8846402]]}},{"type":"Feature","properties":{"osm_id":269728499,"name":"Phillip Street","highway":"residential"},"geometry":{"type":"LineString","coordinates":[[151.1908199,-33.8791381],[151.1908691,-33.8791763],[151.1910774,-33.879411],[151.1911029,-33.8794362],[151.1912914,-33.8795808],[151.1914347,-33.8796752],[151.1914584,-33.8796904],[151.1914828,-33.8797041],[151.1916956,-33.8798832],[151.1917149,-33.8798989],[151.1917465,-33.8799246],[151.1917791,-33.8799476],[151.1917876,-33.8799536],[151.192056,-33.8801437],[151.1924179,-33.8803981],[151.1927373,-33.8804977],[151.1927925,-33.8805149]]}},{"type":"Feature","properties":{"osm_id":272514669,"name":"Smithers Street","highway":"residential"},"geometry":{"type":"LineString","coordinates":[[151.1981268,-33.8868425],[151.1980941,-33.88696],[151.1980078,-33.8872976],[151.1980057,-33.8873062],[151.1979989,-33.8873368]]}},{"type":"Feature","properties":{"osm_id":281241622,"name":"Bartley Street","highway":"residential"},"geometry":{"type":"LineString","coordinates":[[151.1991973,-33.8880124],[151.1989185,-33.8879817],[151.1988291,-33.8879451]]}},{"type":"Feature","properties":{"osm_id":281478424,"name":"Eveleigh Street","highway":"residential"},"geometry":{"type":"LineString","coordinates":[[151.1998837,-33.8896896],[151.2000383,-33.8894539],[151.2000865,-33.8893427],[151.2001907,-33.8889191],[151.2002024,-33.8888687]]}},{"type":"Feature","properties":{"osm_id":281478427,"name":"Woodburn Street","highway":"unclassified"},"geometry":{"type":"LineString","coordinates":[[151.2002849,-33.8899132],[151.200395,-33.8897772],[151.2005488,-33.8895774],[151.2006802,-33.8889836],[151.20069,-33.8889364]]}},{"type":"Feature","properties":{"osm_id":284567193,"name":"O'Connor Street","highway":"residential"},"geometry":{"type":"LineString","coordinates":[[151.1987153,-33.8861146],[151.1988576,-33.8860875],[151.1988934,-33.886083],[151.1991926,-33.8860614],[151.199385,-33.8860474],[151.1994573,-33.8860422],[151.1997959,-33.8860213],[151.1999082,-33.8860147],[151.2000197,-33.8860103],[151.2001691,-33.8860058],[151.2003326,-33.8860009],[151.2005854,-33.8859933],[151.2006813,-33.8859905],[151.2010043,-33.8859808],[151.2010307,-33.88598],[151.20129,-33.8859692],[151.2013443,-33.8859617],[151.201397,-33.8859512],[151.2014517,-33.8859372],[151.2016005,-33.8858932],[151.2016904,-33.8858644],[151.2017309,-33.8858502],[151.2017628,-33.8858369]]}},{"type":"Feature","properties":{"osm_id":285363293,"name":"Thomas Street","highway":"residential"},"geometry":{"type":"LineString","coordinates":[[151.1960216,-33.8896689],[151.1966813,-33.8887441],[151.1967057,-33.8887092]]}},{"type":"Feature","properties":{"osm_id":289679510,"name":"Central Park Avenue","highway":"residential"},"geometry":{"type":"LineString","coordinates":[[151.2001719,-33.8849172],[151.2001971,-33.8849167],[151.2002275,-33.8849161],[151.2009386,-33.8848911],[151.2013016,-33.8848794],[151.2013626,-33.8848734]]}},{"type":"Feature","properties":{"osm_id":340212259,"name":"Thomas Street","highway":"unclassified"},"geometry":{"type":"LineString","coordinates":[[151.1993347,-33.8830543],[151.19945,-33.8830111],[151.2004129,-33.8826143],[151.2010897,-33.8823511],[151.2011216,-33.8823387],[151.2012135,-33.8823031]]}},{"type":"Feature","properties":{"osm_id":340272699,"name":"Chippendale Way","highway":"residential"},"geometry":{"type":"LineString","coordinates":[[151.200093,-33.8848364],[151.200093,-33.8848625],[151.200096,-33.8849178]]}},{"type":"Feature","properties":{"osm_id":353604036,"name":"Jones Street","highway":"residential"},"geometry":{"type":"LineString","coordinates":[[151.1967884,-33.8786038],[151.1968345,-33.8786839],[151.1968426,-33.8786977],[151.1971501,-33.879246],[151.1971693,-33.8792806],[151.1974206,-33.8797334],[151.1976012,-33.8800211],[151.1976094,-33.8800341],[151.1976372,-33.8800807]]}},{"type":"Feature","properties":{"osm_id":384583144,"name":"Wentworth Park Road","highway":"tertiary"},"geometry":{"type":"LineString","coordinates":[[151.1945231,-33.8795079],[151.1946059,-33.8794866],[151.1946339,-33.8794763],[151.1946758,-33.8794608],[151.1948429,-33.8793907],[151.1955964,-33.8790882],[151.1956241,-33.8790759],[151.1957087,-33.8790355]]}},{"type":"Feature","properties":{"osm_id":395699908,"name":"Myrtle Street","highway":"residential"},"geometry":{"type":"LineString","coordinates":[[151.1985605,-33.8873111],[151.1986767,-33.8872896],[151.1986856,-33.8872873],[151.1986943,-33.8872839],[151.1987076,-33.8872782],[151.1987228,-33.8872696],[151.1987846,-33.8872294]]}},{"type":"Feature","properties":{"osm_id":411017204,"name":"Buckland Street","highway":"residential"},"geometry":{"type":"LineString","coordinates":[[151.1974202,-33.8850495],[151.1974181,-33.8850207],[151.1974119,-33.8849344],[151.197393,-33.8846511],[151.1973846,-33.8844874],[151.1973835,-33.8844675],[151.1973822,-33.8844446]]}},{"type":"Feature","properties":{"osm_id":411017214,"name":"Myrtle Street","highway":"residential"},"geometry":{"type":"LineString","coordinates":[[151.1949856,-33.8868472],[151.1954878,-33.8869868],[151.1955404,-33.8870024]]}},{"type":"Feature","properties":{"osm_id":411017215,"name":"Myrtle Street","highway":"residential"},"geometry":{"type":"LineString","coordinates":[[151.1947873,-33.8867878],[151.1947083,-33.8867678],[151.1943881,-33.8866749]]}},{"type":"Feature","properties":{"osm_id":411017217,"name":"Rose Street","highway":"residential"},"geometry":{"type":"LineString","coordinates":[[151.1948732,-33.8867542],[151.1948864,-33.8867173],[151.1949551,-33.8865493]]}},{"type":"Feature","properties":{"osm_id":411017218,"name":"Rose Street","highway":"residential"},"geometry":{"type":"LineString","coordinates":[[151.19476,-33.8870295],[151.1948063,-33.8869184],[151.1948314,-33.8868611]]}},{"type":"Feature","properties":{"osm_id":411017219,"name":"Rose Street","highway":"residential"},"geometry":{"type":"LineString","coordinates":[[151.1949551,-33.8865493],[151.1949766,-33.8864957],[151.1952719,-33.8857811],[151.1953286,-33.8856922]]}},{"type":"Feature","properties":{"osm_id":411017221,"name":"Shepherd Street","highway":"residential"},"geometry":{"type":"LineString","coordinates":[[151.1960583,-33.8859342],[151.1960637,-33.8858682],[151.1960651,-33.8858507]]}},{"type":"Feature","properties":{"osm_id":411017222,"name":"Shepherd Street","highway":"residential"},"geometry":{"type":"LineString","coordinates":[[151.1960651,-33.8858507],[151.196063,-33.8858094],[151.1960582,-33.8857552],[151.1960319,-33.8854572]]}},{"type":"Feature","properties":{"osm_id":411059290,"name":"Buckland Street","highway":"residential"},"geometry":{"type":"LineString","coordinates":[[151.1969249,-33.8872703],[151.1969275,-33.8872635],[151.1970037,-33.8870655]]}},{"type":"Feature","properties":{"osm_id":411059291,"name":"Buckland Street","highway":"residential"},"geometry":{"type":"LineString","coordinates":[[151.1969328,-33.8873546],[151.1969276,-33.8873507],[151.1969244,-33.8873474],[151.1969203,-33.8873419],[151.1969182,-33.8873369],[151.1969162,-33.8873296],[151.1969149,-33.88732],[151.1969168,-33.8873043],[151.1969193,-33.8872894],[151.1969249,-33.8872703]]}},{"type":"Feature","properties":{"osm_id":411059292,"name":"Buckland Street","highway":"residential"},"geometry":{"type":"LineString","coordinates":[[151.1973368,-33.8861372],[151.1973456,-33.8861139],[151.1973584,-33.8860797],[151.1974031,-33.8859712]]}},{"type":"Feature","properties":{"osm_id":411059293,"name":"Buckland Street","highway":"residential"},"geometry":{"type":"LineString","coordinates":[[151.1974031,-33.8859712],[151.1974535,-33.8858358],[151.197476,-33.8857691],[151.197472,-33.8856514],[151.1974626,-33.8855602],[151.1974579,-33.885503],[151.1974308,-33.8851633],[151.1974202,-33.8850495]]}},{"type":"Feature","properties":{"osm_id":411059302,"name":"Myrtle Street","highway":"residential"},"geometry":{"type":"LineString","coordinates":[[151.1970009,-33.8873776],[151.1969886,-33.8873773],[151.1969791,-33.8873764],[151.1969672,-33.8873736],[151.1969556,-33.887369],[151.1969419,-33.8873616],[151.1969328,-33.8873546]]}},{"type":"Feature","properties":{"osm_id":411059304,"name":"Myrtle Street","highway":"residential"},"geometry":{"type":"LineString","coordinates":[[151.1956666,-33.8870399],[151.195735,-33.8870606],[151.1962534,-33.8872202],[151.1962916,-33.8872315],[151.1963157,-33.8872391],[151.1963475,-33.8872486]]}},{"type":"Feature","properties":{"osm_id":411059305,"name":"Pine Street","highway":"residential"},"geometry":{"type":"LineString","coordinates":[[151.1968867,-33.8859874],[151.1968743,-33.8860168],[151.1968708,-33.8860247],[151.1968191,-33.8861426]]}},{"type":"Feature","properties":{"osm_id":411175119,"name":"Blackfriars Street","highway":"residential"},"geometry":{"type":"LineString","coordinates":[[151.197472,-33.8856514],[151.197533,-33.8856493],[151.1976504,-33.8856454]]}},{"type":"Feature","properties":{"osm_id":411175120,"name":"Myrtle Street","highway":"residential"},"geometry":{"type":"LineString","coordinates":[[151.198466,-33.8873316],[151.1982637,-33.8873395]]}},{"type":"Feature","properties":{"osm_id":411175121,"name":"Myrtle Street","highway":"residential"},"geometry":{"type":"LineString","coordinates":[[151.1982637,-33.8873395],[151.1981935,-33.8873394],[151.1980624,-33.8873363],[151.1979989,-33.8873368],[151.1978979,-33.8873414],[151.1974824,-33.8873627],[151.1974056,-33.8873655],[151.1970886,-33.8873747],[151.1970009,-33.8873776]]}},{"type":"Feature","properties":{"osm_id":411175122,"name":"Myrtle Street","highway":"residential"},"geometry":{"type":"LineString","coordinates":[[151.1986296,-33.8873521],[151.1985283,-33.8873389],[151.198466,-33.8873316]]}},{"type":"Feature","properties":{"osm_id":411175123,"name":"O'Connor Street","highway":"residential"},"geometry":{"type":"LineString","coordinates":[[151.1986262,-33.8861264],[151.1984975,-33.8861346]]}},{"type":"Feature","properties":{"osm_id":411192712,"name":"Chippen Street","highway":"unclassified"},"geometry":{"type":"LineString","coordinates":[[151.200592,-33.8876994],[151.2003851,-33.8887447],[151.2003815,-33.8887624],[151.2003776,-33.8887835]]}},{"type":"Feature","properties":{"osm_id":411192713,"name":"Chippen Street","highway":"unclassified"},"geometry":{"type":"LineString","coordinates":[[151.2006111,-33.8876108],[151.2006062,-33.8876346],[151.2006022,-33.887654],[151.200592,-33.8876994]]}},{"type":"Feature","properties":{"osm_id":411192718,"name":"Meagher Street","highway":"residential"},"geometry":{"type":"LineString","coordinates":[[151.1999371,-33.8874867],[151.1999721,-33.8874926],[151.2000975,-33.8875069]]}},{"type":"Feature","properties":{"osm_id":411192719,"name":"Meagher Street","highway":"residential"},"geometry":{"type":"LineString","coordinates":[[151.1998174,-33.8874708],[151.1997903,-33.887472],[151.1997795,-33.8874705],[151.1995778,-33.8874424]]}},{"type":"Feature","properties":{"osm_id":411192721,"name":"Meagher Street","highway":"residential"},"geometry":{"type":"LineString","coordinates":[[151.2007773,-33.8875964],[151.2010237,-33.8876269]]}},{"type":"Feature","properties":{"osm_id":411192722,"name":"Meagher Street","highway":"residential"},"geometry":{"type":"LineString","coordinates":[[151.2000975,-33.8875069],[151.2002607,-33.8875293]]}},{"type":"Feature","properties":{"osm_id":411192723,"name":"Meagher Street","highway":"residential"},"geometry":{"type":"LineString","coordinates":[[151.1991271,-33.8873772],[151.1989038,-33.8873459],[151.1988707,-33.8873424],[151.1987916,-33.8873359]]}},{"type":"Feature","properties":{"osm_id":411192724,"name":"Meagher Street","highway":"residential"},"geometry":{"type":"LineString","coordinates":[[151.2002607,-33.8875293],[151.2004463,-33.8875539]]}},{"type":"Feature","properties":{"osm_id":411192725,"name":"Meagher Street","highway":"residential"},"geometry":{"type":"LineString","coordinates":[[151.1993457,-33.8874066],[151.1991759,-33.887384],[151.1991271,-33.8873772]]}},{"type":"Feature","properties":{"osm_id":411621081,"name":"Boundary Street","highway":"residential"},"geometry":{"type":"LineString","coordinates":[[151.1962443,-33.8886885],[151.1962162,-33.888709],[151.196204,-33.8887167],[151.1961873,-33.8887266],[151.1960591,-33.8887981]]}},{"type":"Feature","properties":{"osm_id":411621082,"name":"Vine Street","highway":"residential"},"geometry":{"type":"LineString","coordinates":[[151.1963177,-33.888632],[151.1963772,-33.8885977],[151.1963861,-33.8885949],[151.1963928,-33.8885935],[151.1964011,-33.8885927],[151.1964107,-33.8885932],[151.1964268,-33.8885954],[151.1964428,-33.8885995],[151.1964593,-33.8886052],[151.1965304,-33.8886341]]}},{"type":"Feature","properties":{"osm_id":418201120,"name":"Francis Street","highway":"residential"},"geometry":{"type":"LineString","coordinates":[[151.1932158,-33.8834111],[151.1945641,-33.8832985],[151.1948191,-33.8832778],[151.1948478,-33.8832755],[151.1949475,-33.8832531]]}},{"type":"Feature","properties":{"osm_id":426559542,"name":"St Johns Road","highway":"tertiary"},"geometry":{"type":"LineString","coordinates":[[151.189231,-33.8800262],[151.1894071,-33.8799293],[151.189575,-33.8798334],[151.1897094,-33.8797566],[151.1897584,-33.8797325],[151.1900712,-33.8795581],[151.1901327,-33.8795242],[151.1903947,-33.8793737],[151.1904813,-33.8793245],[151.1905658,-33.8792759],[151.1908199,-33.8791381],[151.1910702,-33.8790039],[151.1911477,-33.8789603],[151.1914941,-33.8787728],[151.1918391,-33.8785819],[151.1921217,-33.8784364],[151.1924084,-33.878283],[151.1924276,-33.8782734],[151.1924951,-33.8782399]]}},{"type":"Feature","properties":{"osm_id":466004565,"name":"Colbourne Avenue","highway":"residential"},"geometry":{"type":"LineString","coordinates":[[151.1889794,-33.8787446],[151.1897209,-33.879687],[151.1897264,-33.879694],[151.1897584,-33.8797325]]}},{"type":"Feature","properties":{"osm_id":527198182,"name":"Greek Street","highway":"residential"},"geometry":{"type":"LineString","coordinates":[[151.1923976,-33.882941],[151.1929107,-33.8829002],[151.1939907,-33.8828143],[151.1942299,-33.8827945]]}},{"type":"Feature","properties":{"osm_id":529156808,"name":"Glebe Point Road","highway":"secondary"},"geometry":{"type":"LineString","coordinates":[[151.1926442,-33.8841849],[151.192819,-33.8843059],[151.1929477,-33.8844138],[151.1929532,-33.8844301],[151.1929717,-33.8845104]]}},{"type":"Feature","properties":{"osm_id":529285272,"name":"Central Park Avenue","highway":"residential"},"geometry":{"type":"LineString","coordinates":[[151.1994573,-33.8860422],[151.1994537,-33.8860136],[151.1994515,-33.8859937],[151.1994374,-33.8858508],[151.1994165,-33.8855653]]}},{"type":"Feature","properties":{"osm_id":569407301,"name":"Derwent Street","highway":"residential"},"geometry":{"type":"LineString","coordinates":[[151.1914241,-33.884801],[151.1914384,-33.8847169]]}},{"type":"Feature","properties":{"osm_id":587218545,"name":"Mary Ann Street","highway":"residential"},"geometry":{"type":"LineString","coordinates":[[151.1993415,-33.8812318],[151.1994256,-33.8811979],[151.1994936,-33.8811712]]}},{"type":"Feature","properties":{"osm_id":603163622,"name":"Glebe Point Road","highway":"secondary"},"geometry":{"type":"LineString","coordinates":[[151.1918044,-33.8835982],[151.1920713,-33.8837846]]}},{"type":"Feature","properties":{"osm_id":603163630,"name":"Derwent Street","highway":"residential"},"geometry":{"type":"LineString","coordinates":[[151.1913012,-33.8844092],[151.1909766,-33.8841748]]}},{"type":"Feature","properties":{"osm_id":603163631,"name":"Glebe Point Road","highway":"secondary"},"geometry":{"type":"LineString","coordinates":[[151.1903738,-33.8825987],[151.1906596,-33.8827983]]}},{"type":"Feature","properties":{"osm_id":603163632,"name":"Glebe Point Road","highway":"secondary"},"geometry":{"type":"LineString","coordinates":[[151.191607,-33.8834602],[151.1918044,-33.8835982]]}},{"type":"Feature","properties":{"osm_id":603163634,"name":"Cowper Street","highway":"residential"},"geometry":{"type":"LineString","coordinates":[[151.1911395,-33.8831336],[151.1911775,-33.8830937],[151.1913427,-33.8828984]]}},{"type":"Feature","properties":{"osm_id":603163635,"name":"Glebe Point Road","highway":"secondary"},"geometry":{"type":"LineString","coordinates":[[151.1906596,-33.8827983],[151.190846,-33.8829286],[151.1911395,-33.8831336],[151.1912104,-33.8831829],[151.1914375,-33.8833418],[151.191607,-33.8834602]]}},{"type":"Feature","properties":{"osm_id":603163636,"name":"Glebe Point Road","highway":"secondary"},"geometry":{"type":"LineString","coordinates":[[151.1920713,-33.8837846],[151.1923085,-33.8839504],[151.1926442,-33.8841849]]}},{"type":"Feature","properties":{"osm_id":603163637,"name":"Derwent Street","highway":"residential"},"geometry":{"type":"LineString","coordinates":[[151.1890325,-33.8828233],[151.1889827,-33.8827881],[151.1889636,-33.8827773],[151.1869393,-33.8813536],[151.186907,-33.8813309],[151.1868606,-33.8812989]]}},{"type":"Feature","properties":{"osm_id":603163638,"name":"Derwent Street","highway":"residential"},"geometry":{"type":"LineString","coordinates":[[151.1914543,-33.8846235],[151.1914371,-33.8845874],[151.1913897,-33.8845042]]}},{"type":"Feature","properties":{"osm_id":603163639,"name":"Catherine Street","highway":"residential"},"geometry":{"type":"LineString","coordinates":[[151.1905814,-33.8838975],[151.1905289,-33.8839358],[151.1905098,-33.8839481],[151.1904406,-33.883978],[151.1904097,-33.8839886],[151.1903647,-33.8839903],[151.1900823,-33.8839837]]}},{"type":"Feature","properties":{"osm_id":658025187,"name":"Mary Ann Street","highway":"residential"},"geometry":{"type":"LineString","coordinates":[[151.2011967,-33.8804892],[151.2008764,-33.8806211]]}},{"type":"Feature","properties":{"osm_id":663156672,"name":"Bulwara Road","highway":"residential"},"geometry":{"type":"LineString","coordinates":[[151.198627,-33.8798181],[151.1988231,-33.8801569],[151.1989445,-33.8803668],[151.1990352,-33.8805235],[151.1993822,-33.881123],[151.1993942,-33.8811437],[151.1994256,-33.8811979]]}},{"type":"Feature","properties":{"osm_id":678048774,"name":"Central Park Avenue","highway":"residential"},"geometry":{"type":"LineString","coordinates":[[151.200096,-33.8849178],[151.199999,-33.8849197],[151.1996319,-33.8849243],[151.1995251,-33.8849278],[151.1994513,-33.8849419],[151.1994006,-33.8849811],[151.199387,-33.8850242],[151.1994165,-33.8855653]]}},{"type":"Feature","properties":{"osm_id":727724934,"name":"MacArthur Street","highway":"residential"},"geometry":{"type":"LineString","coordinates":[[151.1994957,-33.8793558],[151.1996085,-33.8793104],[151.1996324,-33.8793014],[151.1998164,-33.8792282],[151.2000034,-33.8791538],[151.2000423,-33.8791383]]}},{"type":"Feature","properties":{"osm_id":759044345,"name":"Mountain Street","highway":"residential"},"geometry":{"type":"LineString","coordinates":[[151.1965121,-33.8844084],[151.1964916,-33.8843213]]}},{"type":"Feature","properties":{"osm_id":759046218,"name":"Ultimo Road","highway":"tertiary"},"geometry":{"type":"LineString","coordinates":[[151.201113,-33.8814421],[151.2009413,-33.881511],[151.2009228,-33.8815178],[151.2008872,-33.8815319],[151.2007772,-33.8815757]]}},{"type":"Feature","properties":{"osm_id":816085589,"name":"Wentworth Park Road","highway":"tertiary"},"geometry":{"type":"LineString","coordinates":[[151.1903536,-33.875935],[151.1903807,-33.8759629],[151.1904537,-33.8760446],[151.1904961,-33.8760922],[151.1905428,-33.8761365],[151.1905877,-33.8761755],[151.1906447,-33.8762195],[151.1909475,-33.8764169],[151.1910404,-33.8764758],[151.1911267,-33.8765365],[151.1912013,-33.8766045],[151.1912624,-33.8766649],[151.1917507,-33.8772685],[151.1924263,-33.8781306],[151.1924951,-33.8782399],[151.1926543,-33.8785444],[151.1927096,-33.8786421],[151.1927792,-33.878745],[151.192823,-33.8787918],[151.1931071,-33.8790275],[151.1932431,-33.8791284],[151.1933052,-33.8791776],[151.1934302,-33.8792635],[151.1936275,-33.8794008],[151.1937288,-33.8794569],[151.1938106,-33.8794908],[151.1938954,-33.8795187],[151.1939814,-33.8795387],[151.1940706,-33.8795508],[151.1941683,-33.8795559],[151.1942512,-33.8795553],[151.1943302,-33.8795504],[151.1944024,-33.8795386],[151.1944282,-33.8795331],[151.1945231,-33.8795079]]}},{"type":"Feature","properties":{"osm_id":819335632,"name":"Franklyn Street","highway":"residential"},"geometry":{"type":"LineString","coordinates":[[151.1923976,-33.882941],[151.1923144,-33.8831576]]}},{"type":"Feature","properties":{"osm_id":881484782,"name":"Myrtle Street","highway":"residential"},"geometry":{"type":"LineString","coordinates":[[151.1987936,-33.8873739],[151.198711,-33.8873621],[151.1986916,-33.8873594],[151.1986296,-33.8873521]]}},{"type":"Feature","properties":{"osm_id":881485607,"name":"Kelly Street","highway":"residential"},"geometry":{"type":"LineString","coordinates":[[151.1971961,-33.8816165],[151.1970993,-33.8816276],[151.1968506,-33.8816521]]}},{"type":"Feature","properties":{"osm_id":881485608,"name":"Kelly Street","highway":"residential"},"geometry":{"type":"LineString","coordinates":[[151.1962634,-33.8816766],[151.1960335,-33.8816973]]}},{"type":"Feature","properties":{"osm_id":901005055,"name":"Bulwara Road","highway":"residential"},"geometry":{"type":"LineString","coordinates":[[151.1985703,-33.879726],[151.1986043,-33.8797803],[151.198627,-33.8798181]]}},{"type":"Feature","properties":{"osm_id":901005056,"name":"Bulwara Road","highway":"residential"},"geometry":{"type":"LineString","coordinates":[[151.1984765,-33.879591],[151.1985292,-33.879656],[151.1985703,-33.879726]]}},{"type":"Feature","properties":{"osm_id":901005057,"name":"MacArthur Street","highway":"residential"},"geometry":{"type":"LineString","coordinates":[[151.1985703,-33.879726],[151.1987135,-33.879667]]}},{"type":"Feature","properties":{"osm_id":901005058,"name":"Mary Ann Street","highway":"residential"},"geometry":{"type":"LineString","coordinates":[[151.1999921,-33.8809729],[151.2002293,-33.8808786],[151.2002501,-33.8808703],[151.2003476,-33.8808315]]}},{"type":"Feature","properties":{"osm_id":901005059,"name":"Mary Ann Street","highway":"residential"},"geometry":{"type":"LineString","coordinates":[[151.2008764,-33.8806211],[151.2006683,-33.8807039]]}},{"type":"Feature","properties":{"osm_id":921547199,"name":"Dale Avenue","highway":"unclassified"},"geometry":{"type":"LineString","coordinates":[[151.2002607,-33.8875293],[151.2002491,-33.8875904],[151.2002362,-33.8876638]]}},{"type":"Feature","properties":{"osm_id":921547236,"name":"Meagher Street","highway":"residential"},"geometry":{"type":"LineString","coordinates":[[151.199422,-33.8874173],[151.1993457,-33.8874066]]}},{"type":"Feature","properties":{"osm_id":923232019,"name":"Elger Street","highway":"residential"},"geometry":{"type":"LineString","coordinates":[[151.193601,-33.8806435],[151.1928909,-33.8804504],[151.1928231,-33.880432]]}},{"type":"Feature","properties":{"osm_id":924387741,"name":"Kelly Street","highway":"residential"},"geometry":{"type":"LineString","coordinates":[[151.1968506,-33.8816521],[151.1968017,-33.8816574],[151.196608,-33.8816768]]}},{"type":"Feature","properties":{"osm_id":924387742,"name":"Kelly Street","highway":"residential"},"geometry":{"type":"LineString","coordinates":[[151.1957922,-33.8817182],[151.1958669,-33.8817116],[151.1960335,-33.8816973]]}},{"type":"Feature","properties":{"osm_id":942233882,"name":"Chippendale Way","highway":"residential"},"geometry":{"type":"LineString","coordinates":[[151.2000734,-33.8843937],[151.2000747,-33.8844238],[151.2000869,-33.8846979]]}},{"type":"Feature","properties":{"osm_id":975570678,"name":"Irving Street","highway":"residential"},"geometry":{"type":"LineString","coordinates":[[151.1994165,-33.8855653],[151.1991603,-33.8855745],[151.199004,-33.8855801],[151.1987969,-33.8855875],[151.1986824,-33.8855858]]}},{"type":"Feature","properties":{"osm_id":978388320,"name":"Blackfriars Street","highway":"residential"},"geometry":{"type":"LineString","coordinates":[[151.1983888,-33.8857008],[151.198535,-33.8856966]]}},{"type":"Feature","properties":{"osm_id":978388321,"name":"Blackfriars Street","highway":"residential"},"geometry":{"type":"LineString","coordinates":[[151.1981321,-33.8856368],[151.1981958,-33.885675],[151.1982683,-33.8857044],[151.1983178,-33.8857039]]}},{"type":"Feature","properties":{"osm_id":978399120,"name":"Blackfriars Street","highway":"residential"},"geometry":{"type":"LineString","coordinates":[[151.1977978,-33.8856399],[151.1980646,-33.8856266],[151.1981321,-33.8856368]]}},{"type":"Feature","properties":{"osm_id":978399444,"name":"Blackfriars Street","highway":"residential"},"geometry":{"type":"LineString","coordinates":[[151.1983178,-33.8857039],[151.1983888,-33.8857008]]}},{"type":"Feature","properties":{"osm_id":978401922,"name":"Vine Street","highway":"residential"},"geometry":{"type":"LineString","coordinates":[[151.1987226,-33.8895148],[151.1985755,-33.889448]]}},{"type":"Feature","properties":{"osm_id":978401923,"name":"Vine Street","highway":"residential"},"geometry":{"type":"LineString","coordinates":[[151.1985755,-33.889448],[151.1983958,-33.8893663],[151.1982909,-33.8893186],[151.1982712,-33.8893097],[151.1982216,-33.8892871]]}},{"type":"Feature","properties":{"osm_id":1007511258,"name":"St Johns Road","highway":"tertiary"},"geometry":{"type":"LineString","coordinates":[[151.1878141,-33.8807979],[151.1879053,-33.8807596],[151.1879597,-33.8807317],[151.1881495,-33.8806298]]}},{"type":"Feature","properties":{"osm_id":1041615566,"name":"Mary Ann Street","highway":"residential"},"geometry":{"type":"LineString","coordinates":[[151.1994936,-33.8811712],[151.1998571,-33.8810266]]}},{"type":"Feature","properties":{"osm_id":1041615567,"name":"Mary Ann Street","highway":"residential"},"geometry":{"type":"LineString","coordinates":[[151.1988477,-33.8814282],[151.1993415,-33.8812318]]}},{"type":"Feature","properties":{"osm_id":1041615568,"name":"Mary Ann Street","highway":"residential"},"geometry":{"type":"LineString","coordinates":[[151.1984774,-33.8815755],[151.1985945,-33.8815289],[151.1988477,-33.8814282]]}},{"type":"Feature","properties":{"osm_id":1041615569,"name":"Mary Ann Street","highway":"residential"},"geometry":{"type":"LineString","coordinates":[[151.1998571,-33.8810266],[151.1998961,-33.8810111],[151.1999921,-33.8809729]]}},{"type":"Feature","properties":{"osm_id":1049241486,"name":"Bay Street","highway":"unclassified"},"geometry":{"type":"LineString","coordinates":[[151.1947867,-33.8818799],[151.1947956,-33.8819104],[151.1948183,-33.882178],[151.1948619,-33.8825498]]}},{"type":"Feature","properties":{"osm_id":1069721491,"name":"MacArthur Street","highway":"residential"},"geometry":{"type":"LineString","coordinates":[[151.1976372,-33.8800807],[151.1977427,-33.8800406],[151.198287,-33.8798337]]}},{"type":"Feature","properties":{"osm_id":1080422397,"name":"Jones Street","highway":"residential"},"geometry":{"type":"LineString","coordinates":[[151.1976372,-33.8800807],[151.1976769,-33.8801475],[151.1976873,-33.8801631],[151.1978535,-33.8804834],[151.1982538,-33.8811768]]}},{"type":"Feature","properties":{"osm_id":1080423532,"name":"McKee Street","highway":"residential"},"geometry":{"type":"LineString","coordinates":[[151.1975421,-33.8808077],[151.19742,-33.8805963],[151.1972595,-33.8803131],[151.1972218,-33.8802536]]}},{"type":"Feature","properties":{"osm_id":1080423590,"name":"McKee Street","highway":"residential"},"geometry":{"type":"LineString","coordinates":[[151.1977916,-33.8812401],[151.1975696,-33.8808554],[151.1975421,-33.8808077]]}},{"type":"Feature","properties":{"osm_id":1097294815,"name":"Derwent Street","highway":"residential"},"geometry":{"type":"LineString","coordinates":[[151.1914384,-33.8847169],[151.1914506,-33.8846449],[151.1914543,-33.8846235]]}},{"type":"Feature","properties":{"osm_id":1126570095,"name":"Shepherd Street","highway":"residential"},"geometry":{"type":"LineString","coordinates":[[151.1950395,-33.8883989],[151.1951091,-33.8882439],[151.1951377,-33.88818],[151.1951676,-33.8881069]]}},{"type":"Feature","properties":{"osm_id":1151635246,"name":"Buckland Street","highway":"residential"},"geometry":{"type":"LineString","coordinates":[[151.1973822,-33.8844446],[151.1973801,-33.8843804]]}},{"type":"Feature","properties":{"osm_id":1187547159,"name":"Westmoreland Street","highway":"residential"},"geometry":{"type":"LineString","coordinates":[[151.1883435,-33.8835061],[151.1882056,-33.8834472],[151.1860491,-33.8819386],[151.1860099,-33.881863]]}},{"type":"Feature","properties":{"osm_id":1187547161,"name":"Westmoreland Street","highway":"residential"},"geometry":{"type":"LineString","coordinates":[[151.1860099,-33.881863],[151.1861068,-33.881903],[151.1882512,-33.8833982],[151.1883435,-33.8835061]]}},{"type":"Feature","properties":{"osm_id":1208991236,"name":"Bay Street","highway":"unclassified"},"geometry":{"type":"LineString","coordinates":[[151.1949753,-33.8843527],[151.1949935,-33.884315],[151.1950053,-33.8842918],[151.1950223,-33.884244],[151.1950333,-33.884152]]}},{"type":"Feature","properties":{"osm_id":1208991238,"name":"Bay Street","highway":"unclassified"},"geometry":{"type":"LineString","coordinates":[[151.1950333,-33.884152],[151.1950651,-33.8842382],[151.1950925,-33.8842828],[151.1951535,-33.8843518]]}},{"type":"Feature","properties":{"osm_id":1212506300,"name":"Bay Street","highway":"unclassified"},"geometry":{"type":"LineString","coordinates":[[151.1948619,-33.8825498],[151.1948844,-33.8827471],[151.1948877,-33.8827915],[151.194895,-33.8828928]]}},{"type":"Feature","properties":{"osm_id":1235722581,"name":"Kelly Street","highway":"residential"},"geometry":{"type":"LineString","coordinates":[[151.1965129,-33.8816545],[151.1965948,-33.8816094],[151.1967917,-33.8815864],[151.1970385,-33.8815598],[151.1970602,-33.8815575],[151.1971543,-33.8815461]]}},{"type":"Feature","properties":{"osm_id":1235722582,"name":"Kelly Street","highway":"residential"},"geometry":{"type":"LineString","coordinates":[[151.196608,-33.8816768],[151.1965129,-33.8816545]]}},{"type":"Feature","properties":{"osm_id":1235722583,"name":"Mary Ann Street","highway":"residential"},"geometry":{"type":"LineString","coordinates":[[151.1975181,-33.8819484],[151.1976009,-33.8819156]]}},{"type":"Feature","properties":{"osm_id":1263442460,"name":"Greek Street","highway":"residential"},"geometry":{"type":"LineString","coordinates":[[151.1942299,-33.8827945],[151.1948149,-33.8827571],[151.1948844,-33.8827471]]}},{"type":"Feature","properties":{"osm_id":1265678378,"name":"Kelly Street","highway":"residential"},"geometry":{"type":"LineString","coordinates":[[151.1948985,-33.8817891],[151.1952078,-33.8817641],[151.1956203,-33.8817317],[151.1957922,-33.8817182]]}},{"type":"Feature","properties":{"osm_id":1265678380,"name":"Kelly Street","highway":"residential"},"geometry":{"type":"LineString","coordinates":[[151.196608,-33.8816768],[151.1965418,-33.8816932]]}},{"type":"Feature","properties":{"osm_id":1323330020,"name":"Derwent Street","highway":"residential"},"geometry":{"type":"LineString","coordinates":[[151.1909766,-33.8841748],[151.1908829,-33.8841018],[151.1907806,-33.8840325],[151.1905814,-33.8838975]]}},{"type":"Feature","properties":{"osm_id":1363505458,"name":"Edward Street","highway":"residential"},"geometry":{"type":"LineString","coordinates":[[151.1976118,-33.8887446],[151.1976595,-33.8885206],[151.1976656,-33.8884921],[151.1976778,-33.8884347]]}},{"type":"Feature","properties":{"osm_id":1382740140,"name":"Chippendale Way","highway":"residential"},"geometry":{"type":"LineString","coordinates":[[151.2000723,-33.8842964],[151.2000734,-33.8843937]]}},{"type":"Feature","properties":{"osm_id":1412710200,"name":"Chippendale Way","highway":"residential"},"geometry":{"type":"LineString","coordinates":[[151.2000869,-33.8846979],[151.200093,-33.8848364]]}},{"type":"Feature","properties":{"osm_id":1425976775,"name":"Derwent Street","highway":"residential"},"geometry":{"type":"LineString","coordinates":[[151.1913897,-33.8845042],[151.1913528,-33.8844554],[151.1913012,-33.8844092]]}}]}